NORAD_CAT_ID,OBJECT_NAME,OBJECT_TYPE,EPOCH,MEAN_MOTION,ECCENTRICITY,INCLINATION,RA_OF_ASC_NODE,ARG_OF_PERICENTER,MEAN_ANOMALY,BSTAR,MEAN_MOTION_DOT,MEAN_MOTION_DDOT,TLE_LINE0,TLE_LINE1,TLE_LINE2,SEMIMAJOR_AXIS,PERIOD,APOGEE,PERIGEE,DECAYED
54164.0,STARLINK-5278,PAYLOAD,2022-11-03 14:00:01,15.877577800000005,0.0019985,53.2173,111.8414,197.1708,359.0524,-0.0046618,-0.01297331,0.00047173,0 STARLINK-5278,1 54164U 22141H   22307.58334491 -.01297331  47173-3 -46618-2 0  9991,2 54164  53.2173 111.8414 0019985 197.1708 359.0524 15.87757780  1057,6686.708000000001,90.694,321.936,295.209,0.0
54164.0,STARLINK-5278,PAYLOAD,2022-11-03 22:00:00,15.86894121,0.0016634,53.2174,110.159,205.5161,96.6212,-0.0049553,-0.01164149,0.0,0 STARLINK-5278,1 54164U 22141H   22307.91667824 -.01164149  00000-0 -49553-2 0  9993,2 54164  53.2174 110.1590 0016634 205.5161  96.6212 15.86894121  1306,6689.134,90.743,322.125,299.872,0.0
54164.0,STARLINK-5278,PAYLOAD,2022-11-04 06:00:00,15.86055965,0.0013748,53.2176,108.4742,213.7156,193.2821,-0.0053982,-0.01204397,0.0,0 STARLINK-5278,1 54164U 22141H   22308.25001157 -.01204397  00000-0 -53982-2 0  9993,2 54164  53.2176 108.4742 0013748 213.7156 193.2821 15.86055965  1164,6691.49,90.791,322.555,304.156,0.0
54164.0,STARLINK-5278,PAYLOAD,2022-11-04 14:00:01,15.85163094,0.0011067,53.2176,106.7948,225.219,285.6154,-0.0054353,-0.01161638,0.0,0 STARLINK-5278,1 54164U 22141H   22308.58334491 -.01161638  00000-0 -54353-2 0  9992,2 54164  53.2176 106.7948 0011067 225.2190 285.6154 15.85163094  1304,6694.003000000002,90.842,323.276,308.459,0.0
54164.0,STARLINK-5278,PAYLOAD,2022-11-04 22:00:01,15.84296651,0.0008997,53.2173,105.1184,248.8127,4.8714,-0.0056849,-0.01183277,0.0,0 STARLINK-5278,1 54164U 22141H   22308.91668981 -.01183277  00000-0 -56849-2 0  9998,2 54164  53.2173 105.1184 0008997 248.8127   4.8714 15.84296651  1268,6696.443,90.892,324.333,312.283,0.0
54164.0,STARLINK-5278,PAYLOAD,2022-11-05 12:00:00,15.8277677,0.0005239,53.2173,102.1853,267.2222,73.7626,-0.0061207,-0.01180464,0.0,0 STARLINK-5278,1 54164U 22141H   22309.50001157 -.01180464  00000-0 -61207-2 0  9999,2 54164  53.2173 102.1853 0005239 267.2222  73.7626 15.82776770  1366,6700.729,90.979,326.105,319.084,0.0
54164.0,STARLINK-5278,PAYLOAD,2022-11-05 14:00:01,15.82588822,0.0004382,53.2174,101.7677,270.3378,185.7792,-0.0064584999999999,-0.01227782,0.0,0 STARLINK-5278,1 54164U 22141H   22309.58335648 -.01227782  00000-0 -64585-2 0  9999,2 54164  53.2174 101.7677 0004382 270.3378 185.7792 15.82588822  1302,6701.26,90.99,326.061,320.188,0.0
54164.0,STARLINK-5278,PAYLOAD,2022-11-05 20:00:01,15.81931948,0.000191,53.2177,100.5152,275.8122,165.0802,-0.0066033,-0.01216357,0.0,0 STARLINK-5278,1 54164U 22141H   22309.83334491 -.01216357  00000-0 -66033-2 0  9998,2 54164  53.2177 100.5152 0001910 275.8122 165.0802 15.81931948  1416,6703.115,91.028,326.26,323.699,0.0
54164.0,STARLINK-5278,PAYLOAD,2022-11-05 22:00:01,15.81754894,0.0001662,53.2171,100.0979,286.5702,269.1832,-0.0069578,-0.01264466,0.0,0 STARLINK-5278,1 54164U 22141H   22309.91668981 -.01264466  00000-0 -69578-2 0  9992,2 54164  53.2171 100.0979 0001662 286.5702 269.1832 15.81754894  1309,6703.615,91.038,326.594,324.366,0.0
54164.0,STARLINK-5278,PAYLOAD,2022-11-06 14:00:01,15.79979374,0.0001088,53.2172,96.7598,50.8317,341.0602,-0.0072138,-0.01212987,0.0,0 STARLINK-5278,1 54164U 22141H   22310.58334491 -.01212987  00000-0 -72138-2 0  9990,2 54164  53.2172  96.7598 0001088  50.8317 341.0602 15.79979374  1308,6708.636,91.14,331.231,329.771,0.0
54164.0,STARLINK-5278,PAYLOAD,2022-11-06 22:00:00,15.79102079,0.0001264,53.2169,95.0964,48.2596,80.1621,-0.007408,-0.01198315,0.0,0 STARLINK-5278,1 54164U 22141H   22310.91667824 -.01198315  00000-0 -74080-2 0  9992,2 54164  53.2169  95.0964 0001264  48.2596  80.1621 15.79102079  1581,6711.121,91.191,333.834,332.13699999999994,0.0
54164.0,STARLINK-5278,PAYLOAD,2022-11-07 14:00:01,15.77368318,0.0001109,53.2175,91.7712,58.6218,259.7253,-0.0080365,-0.01201104,0.0,0 STARLINK-5278,1 54164U 22141H   22311.58334491 -.01201104  00000-0 -80365-2 0  9991,2 54164  53.2175  91.7712 0001109  58.6218 259.7253 15.77368318  1680,6716.0369999999975,91.291,338.647,337.157,0.0
54164.0,STARLINK-5278,PAYLOAD,2022-11-07 22:00:00,15.76497064,0.0001215,53.2171,90.113,45.8672,5.879,-0.008313,-0.01195583,0.0,0 STARLINK-5278,1 54164U 22141H   22311.91667824 -.01195583  00000-0 -83130-2 0  9993,2 54164  53.2171  90.1130 0001215  45.8672   5.8790 15.76497064  1308,6718.511,91.342,341.1930000000001,339.56,0.0
54164.0,STARLINK-5278,PAYLOAD,2022-11-08 06:00:00,15.75625764,0.0001489,53.2171,88.4546,41.3244,102.7794,-0.0086015,-0.01190818,0.0,0 STARLINK-5278,1 54164U 22141H   22312.25001157 -.01190818  00000-0 -86015-2 0  9993,2 54164  53.2171  88.4546 0001489  41.3244 102.7794 15.75625764  1791,6720.988,91.392,343.85400000000016,341.852,0.0
54164.0,STARLINK-5278,PAYLOAD,2022-11-08 14:00:01,15.74780089,0.0001357,53.2173,86.8018,55.5482,179.8563,-0.009188,-0.01221353,0.0,0 STARLINK-5278,1 54164U 22141H   22312.58334491 -.01221353  00000-0 -91880-2 0  9994,2 54164  53.2173  86.8018 0001357  55.5482 179.8563 15.74780089  1301,6723.394,91.441,346.171,344.347,0.0
54164.0,STARLINK-5278,PAYLOAD,2022-11-08 22:00:00,15.73779982,0.000151,53.2169,85.1507,37.6586,288.0248,-0.0051646,-0.00686153,0.0,0 STARLINK-5278,1 54164U 22141H   22312.91667824 -.00686153  00000-0 -51646-2 0  9998,2 54164  53.2169  85.1507 0001510  37.6586 288.0248 15.73779982  1894,6726.2419999999975,91.499,349.12300000000016,347.091,0.0
54164.0,STARLINK-5278,PAYLOAD,2022-11-09 04:00:00,15.73249745,0.0001613,53.2175,83.9105,42.2846,260.4751,-0.00053772,-0.00075574,0.0,0 STARLINK-5278,1 54164U 22141H   22313.16667824 -.00075574  00000-0 -53772-3 0  9998,2 54164  53.2175  83.9105 0001613  42.2846 260.4751 15.73249745  1933,6727.753000000002,91.53,350.704,348.533,0.0
54164.0,STARLINK-5278,PAYLOAD,2022-11-09 14:00:01,15.73226776,0.0001631999999999,53.2176,81.8543,36.0369,107.7517,0.00039539,0.00055301,0.0,0 STARLINK-5278,1 54164U 22141H   22313.58334491  .00055301  00000-0  39539-3 0  9994,2 54164  53.2176  81.8543 0001632  36.0369 107.7517 15.73226776  2000,6727.819,91.532,350.782,348.586,0.0
54164.0,STARLINK-5278,PAYLOAD,2022-11-09 22:00:01,15.73287289,0.0001763,53.2172,80.2051,34.6644,198.1587,-0.00068832,-0.00096486,0.0,0 STARLINK-5278,1 54164U 22141H   22313.91668981 -.00096486  00000-0 -68832-3 0  9994,2 54164  53.2172  80.2051 0001763  34.6644 198.1587 15.73287289  2050,6727.646,91.528,350.69699999999995,348.325,0.0
54164.0,STARLINK-5278,PAYLOAD,2022-11-10 14:00:01,15.73171855,0.0001773,53.2174,76.9034,42.5465,8.1584,0.00091502,0.00129642,0.0,0 STARLINK-5278,1 54164U 22141H   22314.58334491  .00129642  00000-0  91502-3 0  9993,2 54164  53.2174  76.9034 0001773  42.5465   8.1584 15.73171855  1300,6727.975,91.535,351.033,348.648,0.0
54164.0,STARLINK-5278,PAYLOAD,2022-11-10 20:00:01,15.73197665,0.0002022,53.2176,75.6699,34.6704,352.7224,0.00063803,0.00089881,0.0,0 STARLINK-5278,1 54164U 22141H   22314.83334491  .00089881  00000-0  63803-3 0  9994,2 54164  53.2176  75.6699 0002022  34.6704 352.7224 15.73197665  2207,6727.901999999999,91.533,351.12699999999984,348.406,0.0
54164.0,STARLINK-5278,PAYLOAD,2022-11-10 22:00:00,15.7324806,0.0001978,53.2178,75.257,35.5058,104.1123,-5.0188e-06,-1.327e-05,0.0,0 STARLINK-5278,1 54164U 22141H   22314.91667824 -.00001327  00000-0 -50188-5 0  9997,2 54164  53.2178  75.2570 0001978  35.5058 104.1123 15.73248060  1307,6727.7580000000025,91.53,350.954,348.292,0.0
54164.0,STARLINK-5278,PAYLOAD,2022-11-11 04:00:00,15.73225429,0.000172,53.2181,74.0183,33.6016,82.76700000000002,0.00015914,0.00021796,0.0,0 STARLINK-5278,1 54164U 22141H   22315.16667824  .00021796  00000-0  15914-3 0  9991,2 54164  53.2181  74.0183 0001720  33.6016  82.7670 15.73225429  2253,6727.823,91.532,350.845,348.53,0.0
54164.0,STARLINK-5278,PAYLOAD,2022-11-11 14:00:01,15.73232544,0.000193,53.2181,71.9579,28.1001,289.4835,-0.00032763,-0.00046416,0.0,0 STARLINK-5278,1 54164U 22141H   22315.58334491 -.00046416  00000-0 -32763-3 0  9997,2 54164  53.2181  71.9579 0001930  28.1001 289.4835 15.73232544  1304,6727.802,91.531,350.966,348.369,0.0
54164.0,STARLINK-5278,PAYLOAD,2022-11-11 22:00:00,15.73223019,0.0002054,53.2177,70.3084,26.63,19.9073,-0.00012175,-0.0001769,0.0,0 STARLINK-5278,1 54164U 22141H   22315.91667824 -.00017690  00000-0 -12175-3 0  9990,2 54164  53.2177  70.3084 0002054  26.6300  19.9073 15.73223019  2371,6727.83,91.532,351.076,348.31300000000016,0.0
54164.0,STARLINK-5278,PAYLOAD,2022-11-12 14:00:01,15.73212783,0.0002229,53.2179,67.01,33.9586,190.4958,0.00027605,0.00038321,0.0,0 STARLINK-5278,1 54164U 22141H   22316.58334491  .00038321  00000-0  27605-3 0  9991,2 54164  53.2179  67.0100 0002229  33.9586 190.4958 15.73212783  2470,6727.859,91.532,351.223,348.224,0.0
54164.0,STARLINK-5278,PAYLOAD,2022-11-12 22:00:00,15.7327615,0.0002159,53.218,65.3601,28.1386,285.2688,-0.00092776,-0.00129282,0.0,0 STARLINK-5278,1 54164U 22141H   22316.91667824 -.00129282  00000-0 -92776-3 0  9997,2 54164  53.2180  65.3601 0002159  28.1386 285.2688 15.73276150  1307,6727.678000000001,91.529,350.996,348.091,0.0
54164.0,STARLINK-5278,PAYLOAD,2022-11-13 04:00:01,15.73176207,0.0002017,53.2182,64.1215,28.3325,261.8783,-0.00031074,-0.00043963,0.0,0 STARLINK-5278,1 54164U 22141H   22317.16668981 -.00043963  00000-0 -31074-3 0  9995,2 54164  53.2182  64.1215 0002017  28.3325 261.8783 15.73176207  2562,6727.9630000000025,91.535,351.185,348.471,0.0
54164.0,STARLINK-5278,PAYLOAD,2022-11-13 14:00:01,15.73125038,0.0002337,53.2183,62.0617,27.1149,104.1298,-0.00024502,-0.0003476,0.0,0 STARLINK-5278,1 54164U 22141H   22317.58334491 -.00034760  00000-0 -24502-3 0  9990,2 54164  53.2183  62.0617 0002337  27.1149 104.1298 15.73125038  1309,6728.109,91.538,351.546,348.402,0.0
